[{"OBJECT_NAME":"OBJECT F","OBJECT_ID":"2025-055F","EPOCH":"2026-03-09T23:18:16.432128","MEAN_MOTION":15.14826081,"ECCENTRICITY":0.00132444,"INCLINATION":97.6376,"RA_OF_ASC_NODE":208.0739,"ARG_OF_PERICENTER":110.0651,"MEAN_ANOMALY":250.2008,"EPHEMERIS_TYPE":0,"CLASSIFICATION_TYPE":"U","NORAD_CAT_ID":63296,"ELEMENT_SET_NO":999,"REV_AT_EPOCH":5397,"BSTAR":0.00069816497,"MEAN_MOTION_DOT":0.00012945,"MEAN_MOTION_DDOT":0},{"OBJECT_NAME":"PEGASUS DEB","OBJECT_ID":"1994-029AES","EPOCH":"2026-03-06T17:32:52.876320","MEAN_MOTION":15.2736598,"ECCENTRICITY":0.00781089,"INCLINATION":81.9406,"RA_OF_ASC_NODE":336.1125,"ARG_OF_PERICENTER":102.4632,"MEAN_ANOMALY":258.5359,"EPHEMERIS_TYPE":0,"CLASSIFICATION_TYPE":"U","NORAD_CAT_ID":39307,"ELEMENT_SET_NO":999,"REV_AT_EPOCH":76792,"BSTAR":0.0021826707,"MEAN_MOTION_DOT":0.00064449,"MEAN_MOTION_DDOT":0}]
